ORBCOMM FM20            
1 25416U 98046D   25022.46746978  .00003017  00000+0  10629-2 0  9997
2 25416  44.9923 151.0993 0002096 221.8985 138.1702 14.36643616383344
ORBCOMM FM16            
1 25417U 98046E   25021.86225703  .00004087  00000+0  13814-2 0  9996
2 25417  44.9921 147.3461 0005354 259.6091 100.4154 14.38110576383189
ORBCOMM FM15            
1 25418U 98046F   25022.42901223  .00003529  00000+0  12070-2 0  9991
2 25418  44.9951 149.3831 0004822 261.3259  98.7043 14.37792590383436
ORBCOMM FM14            
1 25419U 98046G   25022.48099260  .00003618  00000+0  12288-2 0  9997
2 25419  44.9941 147.7647 0004139 249.4039 110.6366 14.38096930383457
ORBCOMM FM13            
1 25420U 98046H   25021.64156343  .00003449  00000+0  11993-2 0  9996
2 25420  44.9954 158.3784 0005938 246.7259 113.2963 14.37008986382156
ORBCOMM FM21            
1 25475U 98053A   25021.96604513  .00002009  00000+0  72212-3 0  9999
2 25475  45.0065 241.6811 0000959 173.9619 186.1241 14.36783284376215
ORBCOMM FM22            
1 25476U 98053B   25021.96218705  .00002717  00000+0  94317-3 0  9990
2 25476  45.0056 237.6442 0002872 190.7574 169.3213 14.37643836376226
ORBCOMM FM23            
1 25477U 98053C   25022.46917607  .00002216  00000+0  78944-3 0  9996
2 25477  45.0064 241.5971 0001953 188.4809 171.6006 14.36904320376741
