<?xml version="1.0" encoding="UTF-8"?>
<ndm xmlns:xsi="http://www.w3.org/2001/XMLSchema-instance" xsi:noNamespaceSchemaLocation="https://sanaregistry.org/r/ndmxml_unqualified/ndmxml-2.0.0-master-2.0.xsd">
<omm id="CCSDS_OMM_VERS" version="2.0">
<header><CREATION_DATE/><ORIGINATOR/></header><body><segment><metadata><OBJECT_NAME>ORBCOMM FM20</OBJECT_NAME><OBJECT_ID>1998-046D</OBJECT_ID><CENTER_NAME>EARTH</CENTER_NAME><REF_FRAME>TEME</REF_FRAME><TIME_SYSTEM>UTC</TIME_SYSTEM><MEAN_ELEMENT_THEORY>SGP4</MEAN_ELEMENT_THEORY></metadata><data><meanElements><EPOCH>2025-01-22T11:13:09.388992</EPOCH><MEAN_MOTION>14.36643616</MEAN_MOTION><ECCENTRICITY>.0002096</ECCENTRICITY><INCLINATION>44.9923</INCLINATION><RA_OF_ASC_NODE>151.0993</RA_OF_ASC_NODE><ARG_OF_PERICENTER>221.8985</ARG_OF_PERICENTER><MEAN_ANOMALY>138.1702</MEAN_ANOMALY></meanElements><tleParameters><EPHEMERIS_TYPE>0</EPHEMERIS_TYPE><CLASSIFICATION_TYPE>U</CLASSIFICATION_TYPE><NORAD_CAT_ID>25416</NORAD_CAT_ID><ELEMENT_SET_NO>999</ELEMENT_SET_NO><REV_AT_EPOCH>38334</REV_AT_EPOCH><BSTAR>.10629E-2</BSTAR><MEAN_MOTION_DOT>.3017E-4</MEAN_MOTION_DOT><MEAN_MOTION_DDOT>0</MEAN_MOTION_DDOT></tleParameters></data></segment></body></omm>
<omm id="CCSDS_OMM_VERS" version="2.0">
<header><CREATION_DATE/><ORIGINATOR/></header><body><segment><metadata><OBJECT_NAME>ORBCOMM FM16</OBJECT_NAME><OBJECT_ID>1998-046E</OBJECT_ID><CENTER_NAME>EARTH</CENTER_NAME><REF_FRAME>TEME</REF_FRAME><TIME_SYSTEM>UTC</TIME_SYSTEM><MEAN_ELEMENT_THEORY>SGP4</MEAN_ELEMENT_THEORY></metadata><data><meanElements><EPOCH>2025-01-21T20:41:39.007392</EPOCH><MEAN_MOTION>14.38110576</MEAN_MOTION><ECCENTRICITY>.0005354</ECCENTRICITY><INCLINATION>44.9921</INCLINATION><RA_OF_ASC_NODE>147.3461</RA_OF_ASC_NODE><ARG_OF_PERICENTER>259.6091</ARG_OF_PERICENTER><MEAN_ANOMALY>100.4154</MEAN_ANOMALY></meanElements><tleParameters><EPHEMERIS_TYPE>0</EPHEMERIS_TYPE><CLASSIFICATION_TYPE>U</CLASSIFICATION_TYPE><NORAD_CAT_ID>25417</NORAD_CAT_ID><ELEMENT_SET_NO>999</ELEMENT_SET_NO><REV_AT_EPOCH>38318</REV_AT_EPOCH><BSTAR>.13814E-2</BSTAR><MEAN_MOTION_DOT>.4087E-4</MEAN_MOTION_DOT><MEAN_MOTION_DDOT>0</MEAN_MOTION_DDOT></tleParameters></data></segment></body></omm>
<omm id="CCSDS_OMM_VERS" version="2.0">
<header><CREATION_DATE/><ORIGINATOR/></header><body><segment><metadata><OBJECT_NAME>ORBCOMM FM15</OBJECT_NAME><OBJECT_ID>1998-046F</OBJECT_ID><CENTER_NAME>EARTH</CENTER_NAME><REF_FRAME>TEME</REF_FRAME><TIME_SYSTEM>UTC</TIME_SYSTEM><MEAN_ELEMENT_THEORY>SGP4</MEAN_ELEMENT_THEORY></metadata><data><meanElements><EPOCH>2025-01-22T10:17:46.656672</EPOCH><MEAN_MOTION>14.37792590</MEAN_MOTION><ECCENTRICITY>.0004822</ECCENTRICITY><INCLINATION>44.9951</INCLINATION><RA_OF_ASC_NODE>149.3831</RA_OF_ASC_NODE><ARG_OF_PERICENTER>261.3259</ARG_OF_PERICENTER><MEAN_ANOMALY>98.7043</MEAN_ANOMALY></meanElements><tleParameters><EPHEMERIS_TYPE>0</EPHEMERIS_TYPE><CLASSIFICATION_TYPE>U</CLASSIFICATION_TYPE><NORAD_CAT_ID>25418</NORAD_CAT_ID><ELEMENT_SET_NO>999</ELEMENT_SET_NO><REV_AT_EPOCH>38343</REV_AT_EPOCH><BSTAR>.1207E-2</BSTAR><MEAN_MOTION_DOT>.3529E-4</MEAN_MOTION_DOT><MEAN_MOTION_DDOT>0</MEAN_MOTION_DDOT></tleParameters></data></segment></body></omm>
<omm id="CCSDS_OMM_VERS" version="2.0">
<header><CREATION_DATE/><ORIGINATOR/></header><body><segment><metadata><OBJECT_NAME>ORBCOMM FM14</OBJECT_NAME><OBJECT_ID>1998-046G</OBJECT_ID><CENTER_NAME>EARTH</CENTER_NAME><REF_FRAME>TEME</REF_FRAME><TIME_SYSTEM>UTC</TIME_SYSTEM><MEAN_ELEMENT_THEORY>SGP4</MEAN_ELEMENT_THEORY></metadata><data><meanElements><EPOCH>2025-01-22T11:32:37.760640</EPOCH><MEAN_MOTION>14.38096930</MEAN_MOTION><ECCENTRICITY>.0004139</ECCENTRICITY><INCLINATION>44.9941</INCLINATION><RA_OF_ASC_NODE>147.7647</RA_OF_ASC_NODE><ARG_OF_PERICENTER>249.4039</ARG_OF_PERICENTER><MEAN_ANOMALY>110.6366</MEAN_ANOMALY></meanElements><tleParameters><EPHEMERIS_TYPE>0</EPHEMERIS_TYPE><CLASSIFICATION_TYPE>U</CLASSIFICATION_TYPE><NORAD_CAT_ID>25419</NORAD_CAT_ID><ELEMENT_SET_NO>999</ELEMENT_SET_NO><REV_AT_EPOCH>38345</REV_AT_EPOCH><BSTAR>.12288E-2</BSTAR><MEAN_MOTION_DOT>.3618E-4</MEAN_MOTION_DOT><MEAN_MOTION_DDOT>0</MEAN_MOTION_DDOT></tleParameters></data></segment></body></omm>
<omm id="CCSDS_OMM_VERS" version="2.0">
<header><CREATION_DATE/><ORIGINATOR/></header><body><segment><metadata><OBJECT_NAME>ORBCOMM FM13</OBJECT_NAME><OBJECT_ID>1998-046H</OBJECT_ID><CENTER_NAME>EARTH</CENTER_NAME><REF_FRAME>TEME</REF_FRAME><TIME_SYSTEM>UTC</TIME_SYSTEM><MEAN_ELEMENT_THEORY>SGP4</MEAN_ELEMENT_THEORY></metadata><data><meanElements><EPOCH>2025-01-21T15:23:51.080352</EPOCH><MEAN_MOTION>14.37008986</MEAN_MOTION><ECCENTRICITY>.0005938</ECCENTRICITY><INCLINATION>44.9954</INCLINATION><RA_OF_ASC_NODE>158.3784</RA_OF_ASC_NODE><ARG_OF_PERICENTER>246.7259</ARG_OF_PERICENTER><MEAN_ANOMALY>113.2963</MEAN_ANOMALY></meanElements><tleParameters><EPHEMERIS_TYPE>0</EPHEMERIS_TYPE><CLASSIFICATION_TYPE>U</CLASSIFICATION_TYPE><NORAD_CAT_ID>25420</NORAD_CAT_ID><ELEMENT_SET_NO>999</ELEMENT_SET_NO><REV_AT_EPOCH>38215</REV_AT_EPOCH><BSTAR>.11993E-2</BSTAR><MEAN_MOTION_DOT>.3449E-4</MEAN_MOTION_DOT><MEAN_MOTION_DDOT>0</MEAN_MOTION_DDOT></tleParameters></data></segment></body></omm>
<omm id="CCSDS_OMM_VERS" version="2.0">
<header><CREATION_DATE/><ORIGINATOR/></header><body><segment><metadata><OBJECT_NAME>ORBCOMM FM21</OBJECT_NAME><OBJECT_ID>1998-053A</OBJECT_ID><CENTER_NAME>EARTH</CENTER_NAME><REF_FRAME>TEME</REF_FRAME><TIME_SYSTEM>UTC</TIME_SYSTEM><MEAN_ELEMENT_THEORY>SGP4</MEAN_ELEMENT_THEORY></metadata><data><meanElements><EPOCH>2025-01-21T23:11:06.299232</EPOCH><MEAN_MOTION>14.36783284</MEAN_MOTION><ECCENTRICITY>.0000959</ECCENTRICITY><INCLINATION>45.0065</INCLINATION><RA_OF_ASC_NODE>241.6811</RA_OF_ASC_NODE><ARG_OF_PERICENTER>173.9619</ARG_OF_PERICENTER><MEAN_ANOMALY>186.1241</MEAN_ANOMALY></meanElements><tleParameters><EPHEMERIS_TYPE>0</EPHEMERIS_TYPE><CLASSIFICATION_TYPE>U</CLASSIFICATION_TYPE><NORAD_CAT_ID>25475</NORAD_CAT_ID><ELEMENT_SET_NO>999</ELEMENT_SET_NO><REV_AT_EPOCH>37621</REV_AT_EPOCH><BSTAR>.72212E-3</BSTAR><MEAN_MOTION_DOT>.2009E-4</MEAN_MOTION_DOT><MEAN_MOTION_DDOT>0</MEAN_MOTION_DDOT></tleParameters></data></segment></body></omm>
<omm id="CCSDS_OMM_VERS" version="2.0">
<header><CREATION_DATE/><ORIGINATOR/></header><body><segment><metadata><OBJECT_NAME>ORBCOMM FM22</OBJECT_NAME><OBJECT_ID>1998-053B</OBJECT_ID><CENTER_NAME>EARTH</CENTER_NAME><REF_FRAME>TEME</REF_FRAME><TIME_SYSTEM>UTC</TIME_SYSTEM><MEAN_ELEMENT_THEORY>SGP4</MEAN_ELEMENT_THEORY></metadata><data><meanElements><EPOCH>2025-01-21T23:05:32.961120</EPOCH><MEAN_MOTION>14.37643836</MEAN_MOTION><ECCENTRICITY>.0002872</ECCENTRICITY><INCLINATION>45.0056</INCLINATION><RA_OF_ASC_NODE>237.6442</RA_OF_ASC_NODE><ARG_OF_PERICENTER>190.7574</ARG_OF_PERICENTER><MEAN_ANOMALY>169.3213</MEAN_ANOMALY></meanElements><tleParameters><EPHEMERIS_TYPE>0</EPHEMERIS_TYPE><CLASSIFICATION_TYPE>U</CLASSIFICATION_TYPE><NORAD_CAT_ID>25476</NORAD_CAT_ID><ELEMENT_SET_NO>999</ELEMENT_SET_NO><REV_AT_EPOCH>37622</REV_AT_EPOCH><BSTAR>.94317E-3</BSTAR><MEAN_MOTION_DOT>.2717E-4</MEAN_MOTION_DOT><MEAN_MOTION_DDOT>0</MEAN_MOTION_DDOT></tleParameters></data></segment></body></omm>
<omm id="CCSDS_OMM_VERS" version="2.0">
<header><CREATION_DATE/><ORIGINATOR/></header><body><segment><metadata><OBJECT_NAME>ORBCOMM FM23</OBJECT_NAME><OBJECT_ID>1998-053C</OBJECT_ID><CENTER_NAME>EARTH</CENTER_NAME><REF_FRAME>TEME</REF_FRAME><TIME_SYSTEM>UTC</TIME_SYSTEM><MEAN_ELEMENT_THEORY>SGP4</MEAN_ELEMENT_THEORY></metadata><data><meanElements><EPOCH>2025-01-22T11:15:36.812448</EPOCH><MEAN_MOTION>14.36904320</MEAN_MOTION><ECCENTRICITY>.0001953</ECCENTRICITY><INCLINATION>45.0064</INCLINATION><RA_OF_ASC_NODE>241.5971</RA_OF_ASC_NODE><ARG_OF_PERICENTER>188.4809</ARG_OF_PERICENTER><MEAN_ANOMALY>171.6006</MEAN_ANOMALY></meanElements><tleParameters><EPHEMERIS_TYPE>0</EPHEMERIS_TYPE><CLASSIFICATION_TYPE>U</CLASSIFICATION_TYPE><NORAD_CAT_ID>25477</NORAD_CAT_ID><ELEMENT_SET_NO>999</ELEMENT_SET_NO><REV_AT_EPOCH>37674</REV_AT_EPOCH><BSTAR>.78944E-3</BSTAR><MEAN_MOTION_DOT>.2216E-4</MEAN_MOTION_DOT><MEAN_MOTION_DDOT>0</MEAN_MOTION_DDOT></tleParameters></data></segment></body></omm>

</ndm>
